1 08820U 76039A   03053.17472838 -.00000007  00000-0  10000-3 0  9996
2 08820 109.8285 142.2246 0044234 326.0271 033.7607 06.38664544369710